NORAD_CAT_ID,OBJECT_NAME,OBJECT_TYPE,EPOCH,MEAN_MOTION,ECCENTRICITY,INCLINATION,RA_OF_ASC_NODE,ARG_OF_PERICENTER,MEAN_ANOMALY,BSTAR,MEAN_MOTION_DOT,MEAN_MOTION_DDOT,TLE_LINE0,TLE_LINE1,TLE_LINE2,SEMIMAJOR_AXIS,PERIOD,APOGEE,PERIGEE,DECAYED
51741.0,STARLINK-3520,PAYLOAD,2024-08-19 16:38:18,15.08843972,0.0001602,53.217,344.4814,100.5352,259.5821,3.0918e-05,2.04e-06,0.0,0 STARLINK-3520,1 51741U 22016AD  24232.69327035  .00000204  00000-0  30918-4 0  9998,2 51741  53.2170 344.4814 0001602 100.5352 259.5821 15.08843972139070,6917.868,95.437,540.841,538.625,0.0
51741.0,STARLINK-3520,PAYLOAD,2024-08-20 13:18:18,15.08860187,0.0001496,53.2167,340.6132,93.7137,266.4026,0.0003438,5.191e-05,0.0,0 STARLINK-3520,1 51741U 22016AD  24233.55438046  .00005191  00000-0  34380-3 0  9995,2 51741  53.2167 340.6132 0001496  93.7137 266.4026 15.08860187139208,6917.819,95.436,540.719,538.649,0.0
51741.0,STARLINK-3520,PAYLOAD,2024-08-20 14:53:41,15.08868565,0.0001584,53.2171,340.313,100.7933,259.3238,0.00053613,8.261e-05,0.0,0 STARLINK-3520,1 51741U 22016AD  24233.62061674  .00008261  00000-0  53613-3 0  9993,2 51741  53.2171 340.3130 0001584 100.7933 259.3238 15.08868565138101,6917.793,95.436,540.754,538.562,0.0
51741.0,STARLINK-3520,PAYLOAD,2024-08-21 13:09:05,15.08866169,0.0001795,53.2166,336.1598,65.4831,294.6348,0.00058566,9.052e-05,0.0,0 STARLINK-3520,1 51741U 22016AD  24234.54798424  .00009052  00000-0  58566-3 0  9996,2 51741  53.2166 336.1598 0001795  65.4831 294.6348 15.08866169139354,6917.8,95.436,540.907,538.424,0.0
